ALICE                   
1 39467U 13072F   26068.66905005  .00012311  00000+0  62398-3 0  9993
2 39467 120.4625 282.3278 0159202 246.5562 111.8695 15.07155655100262
STARLINK-31954          
1 60102U 24117M   26068.29720767 -.00004229  00000+0 -13092-3 0  9992
2 60102  53.1621  39.1420 0000831  93.5893 266.5203 15.30157979 96823
